              M50 Cartesian                         J2K Cartesian  
    -----------------------------------       --------------------------------
     X    =      -20541312.38                 X    =        -6261845.26
     Y    =        3741290.34  feet           Y    =         1070325.58  meter
     Z    =       -7721998.70                 Z    =        -2384081.66
     XDOT =      -9405.884483                 XDOT =       -2841.016019
     YDOT =     -15215.297811  feet/sec       YDOT =       -4669.536851  meter/sec
     ZDOT =      17678.564216                 ZDOT =        5374.563319
 
              TDR Cartesian                         TDR Cartesian  
    -----------------------------------       --------------------------------
     X    =       20215460.31                 X    =         6161672.30
     Y    =        5021869.17  feet           Y    =         1530665.72  meter
     Z    =       -7854172.55                 Z    =        -2393951.79
     XDOT =       2782.676978                 XDOT =         848.159943
     YDOT =      16308.864031  feet/sec       YDOT =        4970.941757  meter/sec
     ZDOT =      17619.114127                 ZDOT =        5370.305986
  
  
    The mean element set is posted at the UTC for which position is
    just north of the next ascending node relative to the above
    vector time
 
 
    TWO LINE MEAN ELEMENT SET
  
    ISS
    1 25544U 98067A   16070.97005904  .00016717  00000-0  10270-3 0  9049
    2 25544  51.6410 187.8544 0001803 289.1263  70.9694 15.54003707 29704
  
  
    Satellite: ISS
    Catalog Number: 25544
    Epoch time:      16070.97005904   =   yrday.fracday
    Element set:     904
    Inclination:       51.6410  deg
    RA of node:       187.8544  deg
    Eccentricity:     .0001803     
    Arg of perigee:   289.1263  deg
    Mean anomaly:      70.9694  deg
    Mean motion:   15.54003707  rev/day
    Decay rate:    1.67170E-04  rev/day^2
    Epoch rev:            2970
    Checksum:              307
 
 
    Coasting Arc #6 (Orbit 2985)
    ---------------------------------------
 
    Vector Time (GMT): 2016/071/23:10:00.000
    Vector Time (MET): N/A
    Weight (LBS)     : 890089.9
 
              M50 Cartesian                         M50 Keplerian  
    -----------------------------------       --------------------------------
     X    =        6734007.26                 A    =         6789332.15  meter
     Y    =        -371805.55  meter          E    =           .0011581
     Z    =         729198.24                 I    =           51.64296
     XDOT =        912.953629                 Wp   =          129.19825
     YDOT =       4743.530970  meter/sec      RA   =          181.74818  deg
     ZDOT =      -5956.090389                 TA   =           42.92267
                                              MA   =           42.83235
                                              Ha   =            220.561  n.mi
                                              Hp   =            215.367
 
              M50 Cartesian                         J2K Cartesian  
    -----------------------------------       --------------------------------
     X    =       22093199.68                 X    =         6734122.27
     Y    =       -1219834.48  feet           Y    =         -296500.66  meter
     Z    =        2392382.67                 Z    =          761910.66
     XDOT =       2995.254689                 XDOT =         888.774534
     YDOT =      15562.765650  feet/sec       YDOT =        4753.604174  meter/sec
     ZDOT =     -19540.978967                 ZDOT =       -5951.714904
 
              TDR Cartesian                         TDR Cartesian  
    -----------------------------------       --------------------------------
     X    =      -20757904.50                 X    =        -6327009.29
     Y    =       -7616239.35  feet           Y    =        -2321429.75  meter
     Z    =        2534415.59                 Z    =          772489.87
     XDOT =       2736.278477                 XDOT =         834.017680
     YDOT =     -14012.079366  feet/sec       YDOT =       -4270.881791  meter/sec
     ZDOT =     -19522.717859                 ZDOT =       -5950.524403
  
  
    The mean element set is posted at the UTC for which position is
    just north of the next ascending node relative to the above
    vector time
 
 
    TWO LINE MEAN ELEMENT SET
  
    ISS
    1 25544U 98067A   16071.99895408  .00016717  00000-0  10270-3 0  9059
    2 25544  51.6411 182.7265 0001783 293.6562  66.4403 15.54040871 29866
  
  
    Satellite: ISS
    Catalog Number: 25544
    Epoch time:      16071.99895408   =   yrday.fracday
    Element set:     905
    Inclination:       51.6411  deg
    RA of node:       182.7265  deg
    Eccentricity:     .0001783     
    Arg of perigee:   293.6562  deg
    Mean anomaly:      66.4403  deg
    Mean motion:   15.54040871  rev/day
    Decay rate:    1.67170E-04  rev/day^2
    Epoch rev:            2986
    Checksum:              329
 
 
    Coasting Arc #7 (Orbit 3001)
    ---------------------------------------
 
    Vector Time (GMT): 2016/072/23:10:00.000
    Vector Time (MET): N/A
    Weight (LBS)     : 890089.9
 
              M50 Cartesian                         M50 Keplerian  
    -----------------------------------       --------------------------------
     X    =       -6704612.01                 A    =         6789116.82  meter
     Y    =        -376387.26  meter          E    =           .0012678
     Z    =         951775.37                 I    =           51.67432
     XDOT =       1112.877079                 Wp   =           47.79302
     YDOT =      -4749.073052  meter/sec      RA   =          176.78027  deg
     ZDOT =       5919.276025                 TA   =          322.51162
                                              MA   =          322.59997
                                              Ha   =            220.496  n.mi
                                              Hp   =            215.379
 
              M50 Cartesian                         J2K Cartesian  
    -----------------------------------       --------------------------------
     X    =      -21996758.57                 X    =        -6704528.17
     Y    =       -1234866.34  feet           Y    =         -451362.10  meter
     Z    =        3122622.61                 Z    =          919206.29
     XDOT =       3651.171518                 XDOT =        1137.146380
     YDOT =     -15580.948333  feet/sec       YDOT =       -4736.491685  meter/sec
     ZDOT =      19420.196931                 ZDOT =        5924.741642
 
              TDR Cartesian                         TDR Cartesian  
    -----------------------------------       --------------------------------
     X    =       19897168.47                 X    =         6064656.95
     Y    =        9505131.28  feet           Y    =         2897164.01  meter
     Z    =        2981311.95                 Z    =          908703.88
     XDOT =      -8486.729323                 XDOT =       -2586.755098
     YDOT =      11621.060083  feet/sec       YDOT =        3542.099113  meter/sec
     ZDOT =      19444.653416                 ZDOT =        5926.730361
  
  
    The mean element set is posted at the UTC for which position is
    just north of the next ascending node relative to the above
    vector time
 
 
    TWO LINE MEAN ELEMENT SET
  
    ISS
    1 25544U 98067A   16073.02782765  .00016717  00000-0  10270-3 0  9067
    2 25544  51.6409 177.5986 0001874 296.6311  63.4649 15.54082352 30020
  
  
    Satellite: ISS
    Catalog Number: 25544
    Epoch time:      16073.02782765   =   yrday.fracday
    Element set:     906
    Inclination:       51.6409  deg
    RA of node:       177.5986  deg
    Eccentricity:     .0001874     
    Arg of perigee:   296.6311  deg
    Mean anomaly:      63.4649  deg
    Mean motion:   15.54082352  rev/day
    Decay rate:    1.67170E-04  rev/day^2
    Epoch rev:            3002
    Checksum:              321
 
 
    Coasting Arc #8 (Orbit 3016)
    ---------------------------------------
 
    Vector Time (GMT): 2016/073/23:10:00.000
    Vector Time (MET): N/A
    Weight (LBS)     : 890089.9
 
              M50 Cartesian                         M50 Keplerian  
    -----------------------------------       --------------------------------
     X    =        6169795.38                 A    =         6786628.44  meter
     Y    =        1165911.13  meter          E    =           .0003319
     Z    =       -2574021.36                 I    =           51.69902
     XDOT =      -3072.050015                 Wp   =          132.15140
     YDOT =       4644.294476  meter/sec      RA   =          171.81033  deg
     ZDOT =      -5266.423788                 TA   =           76.75225
                                              MA   =           76.71523
                                              Ha   =            220.526  n.mi
                                              Hp   =            215.300
 
              M50 Cartesian                         J2K Cartesian  
    -----------------------------------       --------------------------------
     X    =       20242110.84                 X    =         6168802.80
     Y    =        3825167.75  feet           Y    =         1234900.06  meter
     Z    =       -8444951.98                 Z    =        -2544052.60
     XDOT =     -10078.904248                 XDOT =       -3098.173344
     YDOT =      15237.186602  feet/sec       YDOT =        4609.794145  meter/sec
     ZDOT =     -17278.293267                 ZDOT =       -5281.410972
 
